{"type": "FeatureCollection", "features": [ {"type": "Feature", "properties": {"norad_id": 61183, "name": "GSAT0226 (GALILEO 31)", "group": "galileo", "lat": -14.047004122024985, "lon": 56.28318903053992, "alt_km": 23224.230020511553, "timestamp": "2025-12-18T17:50:15.220356+00:00", "meta": {"OBJECT_NAME": "GSAT0226 (GALILEO 31)", "OBJECT_ID": "2024-167B", "EPOCH": "2025-12-17T12:20:03.342912", "MEAN_MOTION": 1.70473772, "ECCENTRICITY": 9.56e-05, "INCLINATION": 55.2379, "RA_OF_ASC_NODE": 226.3053, "ARG_OF_PERICENTER": 107.5101, "MEAN_ANOMALY": 55.2715, "EPHEMERIS_TYPE": 0, "CLASSIFICATION_TYPE": "U", "NORAD_CAT_ID": 61183, "ELEMENT_SET_NO": 999, "REV_AT_EPOCH": 775, "BSTAR": 0, "MEAN_MOTION_DOT": 5.7e-07, "MEAN_MOTION_DDOT": 0}, "tle": {"line1": "1 61183U 24167B   25351.51392758  .00000057  00000+0  00000+0 0  9995", "line2": "2 61183  55.2379 226.3053 0000956 107.5101  55.2715  1.70473772  7750"}}, "geometry": {"type": "Point", "coordinates": [56.28318903053992, -14.047004122024985]}}, {"type": "Feature", "properties": {"norad_id": 67160, "name": "GALILEO A", "group": "galileo", "lat": 9.47658332702678, "lon": 114.11904762460547, "alt_km": 22959.900429157733, "timestamp": "2025-12-18T17:50:15.220367+00:00", "meta": {"OBJECT_NAME": "GALILEO A", "OBJECT_ID": "2025-302A", "EPOCH": "2025-12-18T03:30:19.807776", "MEAN_MOTION": 1.72901431, "ECCENTRICITY": 0.00080329, "INCLINATION": 54.2385, "RA_OF_ASC_NODE": 107.247, "ARG_OF_PERICENTER": 237.4965, "MEAN_ANOMALY": 122.3848, "EPHEMERIS_TYPE": 0, "CLASSIFICATION_TYPE": "U", "NORAD_CAT_ID": 67160, "ELEMENT_SET_NO": 999, "REV_AT_EPOCH": 2, "BSTAR": 0, "MEAN_MOTION_DOT": -7e-08, "MEAN_MOTION_DDOT": 0}, "tle": {"line1": "1 67160U 25302A   25352.14606259 -.00000007  00000+0  00000+0 0  9998", "line2": "2 67160  54.2385 107.2470 0008032 237.4965 122.3848  1.72901431    27"}}, "geometry": {"type": "Point", "coordinates": [114.11904762460547, 9.47658332702678]}}, {"type": "Feature", "properties": {"norad_id": 67161, "name": "GALILEO B", "group": "galileo", "lat": 9.725856842060189, "lon": 114.28962140581278, "alt_km": 22944.09732193123, "timestamp": "2025-12-18T17:50:15.220378+00:00", "meta": {"OBJECT_NAME": "GALILEO B", "OBJECT_ID": "2025-302B", "EPOCH": "2025-12-17T13:37:26.172192", "MEAN_MOTION": 1.72965674, "ECCENTRICITY": 0.00048649, "INCLINATION": 54.2314, "RA_OF_ASC_NODE": 107.2469, "ARG_OF_PERICENTER": 248.2865, "MEAN_ANOMALY": 111.6205, "EPHEMERIS_TYPE": 0, "CLASSIFICATION_TYPE": "U", "NORAD_CAT_ID": 67161, "ELEMENT_SET_NO": 999, "REV_AT_EPOCH": 2, "BSTAR": 0, "MEAN_MOTION_DOT": -8e-08, "MEAN_MOTION_DDOT": 0}, "tle": {"line1": "1 67161U 25302B   25351.56766403 -.00000008  00000+0  00000+0 0  9993", "line2": "2 67161  54.2314 107.2469 0004864 248.2865 111.6205  1.72965674    23"}}, "geometry": {"type": "Point", "coordinates": [114.28962140581278, 9.725856842060189]}}]}